[{"OBJECT_NAME":"STARLINK-33967","OBJECT_ID":"2025-102F","EPOCH":"2026-03-09T13:34:48.218304","MEAN_MOTION":14.98340747,"ECCENTRICITY":0.0002934,"INCLINATION":70.0014,"RA_OF_ASC_NODE":114.7685,"ARG_OF_PERICENTER":276.8352,"MEAN_ANOMALY":83.2473,"EPHEMERIS_TYPE":0,"CLASSIFICATION_TYPE":"U","NORAD_CAT_ID":64027,"ELEMENT_SET_NO":999,"REV_AT_EPOCH":4587,"BSTAR":0.00038169,"MEAN_MOTION_DOT":4.465e-5,"MEAN_MOTION_DDOT":0},{"OBJECT_NAME":"CZ-6A DEB","OBJECT_ID":"2022-151SB","EPOCH":"2026-03-09T22:09:26.196768","MEAN_MOTION":14.85244417,"ECCENTRICITY":0.00728534,"INCLINATION":99.1392,"RA_OF_ASC_NODE":215.607,"ARG_OF_PERICENTER":235.4544,"MEAN_ANOMALY":123.9777,"EPHEMERIS_TYPE":0,"CLASSIFICATION_TYPE":"U","NORAD_CAT_ID":54938,"ELEMENT_SET_NO":999,"REV_AT_EPOCH":17622,"BSTAR":0.0039580306,"MEAN_MOTION_DOT":0.00035713,"MEAN_MOTION_DDOT":0}]
